{
  "type": "FeatureCollection",
  "features": [
    {
      "type": "Feature",
      "properties": {
        "id": "1177592916",
        "name": "Unnamed Access Road",
        "highway": "service",
        "surface": "paved"
      },
      "geometry": {
        "type": "LineString",
        "coordinates": [
          [
            -98.068802,
            26.1664113
          ],
          [
            -98.0689258,
            26.1664203
          ],
          [
            -98.0689688,
            26.1664123
          ],
          [
            -98.0691895,
            26.1663695
          ],
          [
            -98.0694906,
            26.166311
          ],
          [
            -98.0695321,
            26.1662817
          ],
          [
            -98.0695501,
            26.1662471
          ],
          [
            -98.0695533,
            26.1661954
          ],
          [
            -98.0695384,
            26.1661385
          ]
        ]
      }
    },
    {
      "type": "Feature",
      "properties": {
        "id": "1177592917",
        "name": "Unnamed Access Road",
        "highway": "service",
        "surface": "paved"
      },
      "geometry": {
        "type": "LineString",
        "coordinates": [
          [
            -98.0695384,
            26.1661385
          ],
          [
            -98.0695792,
            26.1661204
          ],
          [
            -98.0696448,
            26.1660914
          ],
          [
            -98.0701051,
            26.166013
          ]
        ]
      }
    },
    {
      "type": "Feature",
      "properties": {
        "id": "1177592918",
        "name": "Unnamed Access Road",
        "highway": "service",
        "surface": "paved"
      },
      "geometry": {
        "type": "LineString",
        "coordinates": [
          [
            -98.0685788,
            26.1677221
          ],
          [
            -98.0687477,
            26.1676988
          ],
          [
            -98.0691019,
            26.1676188
          ],
          [
            -98.0692989,
            26.1675742
          ],
          [
            -98.0694672,
            26.1675362
          ],
          [
            -98.069544,
            26.1675189
          ],
          [
            -98.0695918,
            26.1675081
          ],
          [
            -98.0694757,
            26.1670117
          ],
          [
            -98.0693495,
            26.1670398
          ],
          [
            -98.0691797,
            26.1670775
          ],
          [
            -98.0689829,
            26.1671213
          ],
          [
            -98.0688414,
            26.1671488
          ],
          [
            -98.0686798,
            26.1671288
          ]
        ]
      }
    },
    {
      "type": "Feature",
      "properties": {
        "id": "1177592919",
        "name": "Unnamed Access Road",
        "highway": "service",
        "surface": "paved"
      },
      "geometry": {
        "type": "LineString",
        "coordinates": [
          [
            -98.0689829,
            26.1671213
          ],
          [
            -98.0691019,
            26.1676188
          ]
        ]
      }
    },
    {
      "type": "Feature",
      "properties": {
        "id": "1177592920",
        "name": "Unnamed Access Road",
        "highway": "service",
        "surface": "paved"
      },
      "geometry": {
        "type": "LineString",
        "coordinates": [
          [
            -98.0691797,
            26.1670775
          ],
          [
            -98.0692989,
            26.1675742
          ]
        ]
      }
    },
    {
      "type": "Feature",
      "properties": {
        "id": "1177592921",
        "name": "Unnamed Access Road",
        "highway": "service",
        "surface": "paved"
      },
      "geometry": {
        "type": "LineString",
        "coordinates": [
          [
            -98.0693495,
            26.1670398
          ],
          [
            -98.0694672,
            26.1675362
          ]
        ]
      }
    },
    {
      "type": "Feature",
      "properties": {
        "id": "1177592922",
        "name": "Unnamed Access Road",
        "highway": "service",
        "surface": "paved"
      },
      "geometry": {
        "type": "LineString",
        "coordinates": [
          [
            -98.0697121,
            26.1673631
          ],
          [
            -98.069743,
            26.167478
          ],
          [
            -98.0695918,
            26.1675081
          ]
        ]
      }
    },
    {
      "type": "Feature",
      "properties": {
        "id": "1177592923",
        "name": "Unnamed Access Road",
        "highway": "service",
        "surface": "paved"
      },
      "geometry": {
        "type": "LineString",
        "coordinates": [
          [
            -98.069743,
            26.167478
          ],
          [
            -98.0697727,
            26.1675897
          ],
          [
            -98.0699717,
            26.1675497
          ],
          [
            -98.0699923,
            26.167861
          ],
          [
            -98.0697885,
            26.1678381
          ],
          [
            -98.0696228,
            26.1678145
          ],
          [
            -98.0695783,
            26.1676483
          ]
        ]
      }
    },
    {
      "type": "Feature",
      "properties": {
        "id": "1177592924",
        "name": "Unnamed Access Road",
        "highway": "service",
        "surface": "paved"
      },
      "geometry": {
        "type": "LineString",
        "coordinates": [
          [
            -98.0691019,
            26.1676188
          ],
          [
            -98.06914,
            26.1677451
          ],
          [
            -98.0695783,
            26.1676483
          ],
          [
            -98.069544,
            26.1675189
          ]
        ]
      }
    },
    {
      "type": "Feature",
      "properties": {
        "id": "1177592925",
        "name": "Unnamed Access Road",
        "highway": "service",
        "surface": "paved"
      },
      "geometry": {
        "type": "LineString",
        "coordinates": [
          [
            -98.0697727,
            26.1675897
          ],
          [
            -98.0695783,
            26.1676483
          ]
        ]
      }
    },
    {
      "type": "Feature",
      "properties": {
        "id": "1177592926",
        "name": "Unnamed Access Road",
        "highway": "service",
        "surface": "paved"
      },
      "geometry": {
        "type": "LineString",
        "coordinates": [
          [
            -98.0697727,
            26.1675897
          ],
          [
            -98.0697885,
            26.1678381
          ]
        ]
      }
    },
    {
      "type": "Feature",
      "properties": {
        "id": "1177592927",
        "name": "Unnamed Access Road",
        "highway": "service",
        "surface": "paved"
      },
      "geometry": {
        "type": "LineString",
        "coordinates": [
          [
            -98.0691895,
            26.1663695
          ],
          [
            -98.0692272,
            26.1665066
          ],
          [
            -98.0694004,
            26.166473
          ]
        ]
      }
    },
    {
      "type": "Feature",
      "properties": {
        "id": "1177592928",
        "name": "Unnamed Access Road",
        "highway": "service",
        "surface": "paved"
      },
      "geometry": {
        "type": "LineString",
        "coordinates": [
          [
            -98.0688734,
            26.1659917
          ],
          [
            -98.0690419,
            26.1660126
          ],
          [
            -98.0694474,
            26.1660682
          ],
          [
            -98.0694934,
            26.1660934
          ],
          [
            -98.0695384,
            26.1661385
          ]
        ]
      }
    },
    {
      "type": "Feature",
      "properties": {
        "id": "1185694797",
        "name": "Unnamed Access Road",
        "highway": "service",
        "surface": "paved"
      },
      "geometry": {
        "type": "LineString",
        "coordinates": [
          [
            -98.066305,
            26.1637799
          ],
          [
            -98.0663085,
            26.1637548
          ],
          [
            -98.0663446,
            26.1634974
          ],
          [
            -98.0663458,
            26.1634888
          ],
          [
            -98.0664258,
            26.1630878
          ],
          [
            -98.0664368,
            26.16302
          ],
          [
            -98.0664421,
            26.1629874
          ],
          [
            -98.0664672,
            26.1628327
          ],
          [
            -98.066472,
            26.1628037
          ],
          [
            -98.0665001,
            26.1626307
          ],
          [
            -98.0665146,
            26.1625829
          ]
        ]
      }
    },
    {
      "type": "Feature",
      "properties": {
        "id": "1185694798",
        "name": "Unnamed Access Road",
        "highway": "service",
        "surface": "paved"
      },
      "geometry": {
        "type": "LineString",
        "coordinates": [
          [
            -98.0664037,
            26.1623825
          ],
          [
            -98.0663868,
            26.1624235
          ],
          [
            -98.0663855,
            26.1624673
          ],
          [
            -98.0663998,
            26.1625091
          ],
          [
            -98.0664283,
            26.1625447
          ],
          [
            -98.066468,
            26.1625701
          ],
          [
            -98.0665146,
            26.1625829
          ],
          [
            -98.0665652,
            26.1625813
          ],
          [
            -98.0666123,
            26.1625647
          ],
          [
            -98.0666506,
            26.162535
          ],
          [
            -98.0666758,
            26.1624957
          ],
          [
            -98.066685,
            26.1624511
          ],
          [
            -98.0666773,
            26.1624062
          ],
          [
            -98.0666534,
            26.1623662
          ],
          [
            -98.0666161,
            26.1623355
          ],
          [
            -98.0665714,
            26.1623181
          ],
          [
            -98.0665228,
            26.1623144
          ],
          [
            -98.0664754,
            26.1623249
          ],
          [
            -98.0664343,
            26.1623484
          ],
          [
            -98.0664037,
            26.1623825
          ]
        ]
      }
    },
    {
      "type": "Feature",
      "properties": {
        "id": "1185694799",
        "name": "Unnamed Access Road",
        "highway": "service",
        "surface": "paved"
      },
      "geometry": {
        "type": "LineString",
        "coordinates": [
          [
            -98.066305,
            26.1637799
          ],
          [
            -98.0662735,
            26.1637969
          ],
          [
            -98.0662621,
            26.1638629
          ],
          [
            -98.0662743,
            26.1638976
          ]
        ]
      }
    },
    {
      "type": "Feature",
      "properties": {
        "id": "1185694800",
        "name": "Unnamed Access Road",
        "highway": "service",
        "surface": "paved"
      },
      "geometry": {
        "type": "LineString",
        "coordinates": [
          [
            -98.066232,
            26.16423
          ],
          [
            -98.0662501,
            26.1640878
          ],
          [
            -98.0662728,
            26.1639088
          ],
          [
            -98.0662743,
            26.1638976
          ]
        ]
      }
    },
    {
      "type": "Feature",
      "properties": {
        "id": "1185694801",
        "name": "Unnamed Access Road",
        "highway": "service",
        "surface": "paved"
      },
      "geometry": {
        "type": "LineString",
        "coordinates": [
          [
            -98.0662743,
            26.1638976
          ],
          [
            -98.0663072,
            26.1638692
          ],
          [
            -98.0663167,
            26.1638065
          ],
          [
            -98.066305,
            26.1637799
          ]
        ]
      }
    },
    {
      "type": "Feature",
      "properties": {
        "id": "1185694802",
        "name": "Unnamed Access Road",
        "highway": "service",
        "surface": "paved"
      },
      "geometry": {
        "type": "LineString",
        "coordinates": [
          [
            -98.0662728,
            26.1639088
          ],
          [
            -98.0662308,
            26.1638907
          ],
          [
            -98.066178,
            26.1638903
          ],
          [
            -98.0661147,
            26.1639264
          ],
          [
            -98.0660987,
            26.1639954
          ],
          [
            -98.0661018,
            26.1640462
          ],
          [
            -98.0661319,
            26.164068
          ],
          [
            -98.0662501,
            26.1640878
          ]
        ]
      }
    },
    {
      "type": "Feature",
      "properties": {
        "id": "1185694803",
        "name": "Unnamed Access Road",
        "highway": "service",
        "surface": "paved"
      },
      "geometry": {
        "type": "LineString",
        "coordinates": [
          [
            -98.0663085,
            26.1637548
          ],
          [
            -98.0665028,
            26.1637817
          ],
          [
            -98.0665207,
            26.1637784
          ],
          [
            -98.0665446,
            26.1637632
          ],
          [
            -98.0665729,
            26.1635596
          ],
          [
            -98.0665669,
            26.163544
          ],
          [
            -98.0665467,
            26.1635284
          ],
          [
            -98.0663446,
            26.1634974
          ]
        ]
      }
    },
    {
      "type": "Feature",
      "properties": {
        "id": "1185694804",
        "name": "Unnamed Access Road",
        "highway": "service",
        "surface": "paved"
      },
      "geometry": {
        "type": "LineString",
        "coordinates": [
          [
            -98.0664368,
            26.16302
          ],
          [
            -98.0662458,
            26.1629854
          ],
          [
            -98.066228,
            26.1629695
          ],
          [
            -98.0662112,
            26.1629438
          ],
          [
            -98.0662332,
            26.1628283
          ],
          [
            -98.0662456,
            26.162816
          ],
          [
            -98.0662651,
            26.1628037
          ],
          [
            -98.0664672,
            26.1628327
          ]
        ]
      }
    },
    {
      "type": "Feature",
      "properties": {
        "id": "1185694805",
        "name": "Unnamed Access Road",
        "highway": "service",
        "surface": "paved"
      },
      "geometry": {
        "type": "LineString",
        "coordinates": [
          [
            -98.0664421,
            26.1629874
          ],
          [
            -98.0666311,
            26.1630136
          ],
          [
            -98.0666617,
            26.1630075
          ],
          [
            -98.0666734,
            26.162993
          ],
          [
            -98.066687,
            26.1628598
          ],
          [
            -98.0666809,
            26.162843
          ],
          [
            -98.0666559,
            26.1628304
          ],
          [
            -98.066472,
            26.1628037
          ]
        ]
      }
    },
    {
      "type": "Feature",
      "properties": {
        "id": "1236079252",
        "name": "Unnamed Access Road",
        "highway": "service",
        "surface": "paved"
      },
      "geometry": {
        "type": "LineString",
        "coordinates": [
          [
            -98.0666705,
            26.1642944
          ],
          [
            -98.0665629,
            26.1649487
          ],
          [
            -98.0665354,
            26.1651154
          ],
          [
            -98.0665067,
            26.1652903
          ],
          [
            -98.0664917,
            26.1653506
          ],
          [
            -98.066448,
            26.1654191
          ],
          [
            -98.0663936,
            26.1654521
          ],
          [
            -98.0663345,
            26.1654631
          ],
          [
            -98.0663013,
            26.1654612
          ],
          [
            -98.0659507,
            26.1654129
          ],
          [
            -98.0658908,
            26.1653868
          ],
          [
            -98.0658503,
            26.1653565
          ],
          [
            -98.0658278,
            26.165291
          ],
          [
            -98.0658382,
            26.1651946
          ],
          [
            -98.0658685,
            26.1650196
          ],
          [
            -98.0658976,
            26.1648515
          ],
          [
            -98.0660107,
            26.1641975
          ]
        ]
      }
    },
    {
      "type": "Feature",
      "properties": {
        "id": "1336884412",
        "name": "Unnamed Access Road",
        "highway": "service",
        "surface": "paved"
      },
      "geometry": {
        "type": "LineString",
        "coordinates": [
          [
            -98.0665067,
            26.1652903
          ],
          [
            -98.0658382,
            26.1651946
          ]
        ]
      }
    },
    {
      "type": "Feature",
      "properties": {
        "id": "1336884413",
        "name": "Unnamed Access Road",
        "highway": "service",
        "surface": "paved"
      },
      "geometry": {
        "type": "LineString",
        "coordinates": [
          [
            -98.0665629,
            26.1649487
          ],
          [
            -98.0658976,
            26.1648515
          ]
        ]
      }
    },
    {
      "type": "Feature",
      "properties": {
        "id": "1336884414",
        "name": "Unnamed Access Road",
        "highway": "service",
        "surface": "paved"
      },
      "geometry": {
        "type": "LineString",
        "coordinates": [
          [
            -98.0665354,
            26.1651154
          ],
          [
            -98.0658685,
            26.1650196
          ]
        ]
      }
    },
    {
      "type": "Feature",
      "properties": {
        "id": "1465386488",
        "name": "Unnamed Access Road",
        "highway": "service",
        "surface": "paved"
      },
      "geometry": {
        "type": "LineString",
        "coordinates": [
          [
            -98.071143,
            26.1648912
          ],
          [
            -98.0710331,
            26.1655554
          ]
        ]
      }
    }
  ]
}