{
  "type": "FeatureCollection",
  "features": [
    {
      "type": "Feature",
      "properties": {
        "id": "15260734",
        "name": "Muneca Drive",
        "highway": "residential",
        "surface": "paved"
      },
      "geometry": {
        "type": "LineString",
        "coordinates": [
          [
            -98.0664982,
            26.1701405
          ],
          [
            -98.066378,
            26.1708338
          ],
          [
            -98.0662493,
            26.1715502
          ]
        ]
      }
    },
    {
      "type": "Feature",
      "properties": {
        "id": "15262803",
        "name": "Janneth Street",
        "highway": "residential",
        "surface": "paved"
      },
      "geometry": {
        "type": "LineString",
        "coordinates": [
          [
            -98.075991,
            26.1715471
          ],
          [
            -98.0753861,
            26.1714673
          ],
          [
            -98.0743233,
            26.1713271
          ],
          [
            -98.0738539,
            26.1712652
          ]
        ]
      }
    },
    {
      "type": "Feature",
      "properties": {
        "id": "15267829",
        "name": "Collins Street",
        "highway": "residential",
        "surface": "paved"
      },
      "geometry": {
        "type": "LineString",
        "coordinates": [
          [
            -98.0715794,
            26.169763
          ],
          [
            -98.0683194,
            26.1693185
          ]
        ]
      }
    },
    {
      "type": "Feature",
      "properties": {
        "id": "15268229",
        "name": "Tranquility Drive",
        "highway": "residential",
        "surface": "paved"
      },
      "geometry": {
        "type": "LineString",
        "coordinates": [
          [
            -98.0717081,
            26.1690775
          ],
          [
            -98.0715794,
            26.169763
          ],
          [
            -98.0714592,
            26.1704794
          ],
          [
            -98.0713476,
            26.1711881
          ],
          [
            -98.0712275,
            26.1719045
          ]
        ]
      }
    },
    {
      "type": "Feature",
      "properties": {
        "id": "15268648",
        "name": "Oliveraz Street",
        "highway": "residential",
        "surface": "paved"
      },
      "geometry": {
        "type": "LineString",
        "coordinates": [
          [
            -98.0737509,
            26.1746853
          ],
          [
            -98.0737885,
            26.1744647
          ],
          [
            -98.0743233,
            26.1713271
          ]
        ]
      }
    },
    {
      "type": "Feature",
      "properties": {
        "id": "15268866",
        "name": "South Avenue & Antenna",
        "highway": "residential",
        "surface": "paved"
      },
      "geometry": {
        "type": "LineString",
        "coordinates": [
          [
            -98.073025,
            26.165145
          ],
          [
            -98.072932,
            26.165132
          ],
          [
            -98.071143,
            26.1648912
          ],
          [
            -98.0691074,
            26.1646172
          ]
        ]
      }
    },
    {
      "type": "Feature",
      "properties": {
        "id": "15269348",
        "name": "Aldrin Street",
        "highway": "residential",
        "surface": "paved"
      },
      "geometry": {
        "type": "LineString",
        "coordinates": [
          [
            -98.0681955,
            26.1700224
          ],
          [
            -98.0714592,
            26.1704794
          ]
        ]
      }
    },
    {
      "type": "Feature",
      "properties": {
        "id": "15269934",
        "name": "Aldrin Street",
        "highway": "residential",
        "surface": "paved"
      },
      "geometry": {
        "type": "LineString",
        "coordinates": [
          [
            -98.0681381,
            26.1703714
          ],
          [
            -98.0664982,
            26.1701405
          ]
        ]
      }
    },
    {
      "type": "Feature",
      "properties": {
        "id": "15269935",
        "name": "Jennifer Street",
        "highway": "residential",
        "surface": "paved"
      },
      "geometry": {
        "type": "LineString",
        "coordinates": [
          [
            -98.0718188,
            26.1738326
          ],
          [
            -98.0719517,
            26.1730392
          ],
          [
            -98.0720944,
            26.1722358
          ],
          [
            -98.0723864,
            26.1705756
          ],
          [
            -98.0725002,
            26.1705488
          ],
          [
            -98.0724975,
            26.1704255
          ],
          [
            -98.0724806,
            26.1700327
          ],
          [
            -98.072634,
            26.1691882
          ],
          [
            -98.0727173,
            26.1686946
          ]
        ]
      }
    },
    {
      "type": "Feature",
      "properties": {
        "id": "15270203",
        "name": "Cedar Drive",
        "highway": "residential",
        "surface": "paved"
      },
      "geometry": {
        "type": "LineString",
        "coordinates": [
          [
            -98.0638889,
            26.1677448
          ],
          [
            -98.0641207,
            26.1678757
          ],
          [
            -98.064464,
            26.1679759
          ],
          [
            -98.0648588,
            26.1680221
          ],
          [
            -98.0652451,
            26.1680914
          ],
          [
            -98.0655455,
            26.16813
          ],
          [
            -98.0661806,
            26.1682224
          ]
        ]
      }
    },
    {
      "type": "Feature",
      "properties": {
        "id": "15270235",
        "name": "South Avenue",
        "highway": "tertiary",
        "surface": "paved"
      },
      "geometry": {
        "type": "LineString",
        "coordinates": [
          [
            -98.0443601,
            26.1612902
          ],
          [
            -98.0446389,
            26.1612829
          ],
          [
            -98.0448677,
            26.1612977
          ],
          [
            -98.0452406,
            26.1613589
          ],
          [
            -98.0459045,
            26.1614486
          ],
          [
            -98.046201,
            26.1614884
          ],
          [
            -98.0465142,
            26.161525
          ],
          [
            -98.0468104,
            26.1615683
          ],
          [
            -98.0471098,
            26.1616079
          ],
          [
            -98.0473973,
            26.1616459
          ],
          [
            -98.0495394,
            26.161938
          ],
          [
            -98.0498969,
            26.1619867
          ],
          [
            -98.0506516,
            26.162096
          ],
          [
            -98.0509666,
            26.1621366
          ],
          [
            -98.0526037,
            26.1623538
          ],
          [
            -98.0532501,
            26.1624454
          ],
          [
            -98.0544154,
            26.1626035
          ],
          [
            -98.0555993,
            26.1627644
          ],
          [
            -98.056715,
            26.162912
          ],
          [
            -98.0570204,
            26.1629568
          ],
          [
            -98.0573046,
            26.1629985
          ],
          [
            -98.0576012,
            26.1630419
          ],
          [
            -98.0578894,
            26.1630842
          ],
          [
            -98.0585504,
            26.1631707
          ],
          [
            -98.059019,
            26.163232
          ],
          [
            -98.0598029,
            26.1633453
          ],
          [
            -98.0601811,
            26.1634
          ],
          [
            -98.0612454,
            26.1635387
          ],
          [
            -98.0624556,
            26.1637236
          ],
          [
            -98.0645155,
            26.1639778
          ],
          [
            -98.0660107,
            26.1641975
          ],
          [
            -98.066232,
            26.16423
          ],
          [
            -98.0666705,
            26.1642944
          ],
          [
            -98.0672309,
            26.1643767
          ],
          [
            -98.0691074,
            26.1646172
          ]
        ]
      }
    },
    {
      "type": "Feature",
      "properties": {
        "id": "15270533",
        "name": "Armstrong Street",
        "highway": "residential",
        "surface": "paved"
      },
      "geometry": {
        "type": "LineString",
        "coordinates": [
          [
            -98.0713476,
            26.1711881
          ],
          [
            -98.0680772,
            26.1707182
          ]
        ]
      }
    },
    {
      "type": "Feature",
      "properties": {
        "id": "15270534",
        "name": "Armstrong Street",
        "highway": "residential",
        "surface": "paved"
      },
      "geometry": {
        "type": "LineString",
        "coordinates": [
          [
            -98.066378,
            26.1708338
          ],
          [
            -98.0680206,
            26.17107
          ]
        ]
      }
    },
    {
      "type": "Feature",
      "properties": {
        "id": "15270824",
        "name": "Apollo Circle",
        "highway": "residential",
        "surface": "paved"
      },
      "geometry": {
        "type": "LineString",
        "coordinates": [
          [
            -98.0750347,
            26.1699995
          ],
          [
            -98.0742202,
            26.1698847
          ],
          [
            -98.0733937,
            26.1697715
          ]
        ]
      }
    },
    {
      "type": "Feature",
      "properties": {
        "id": "15271457",
        "name": "Tyan Street",
        "highway": "residential",
        "surface": "paved"
      },
      "geometry": {
        "type": "LineString",
        "coordinates": [
          [
            -98.0725002,
            26.1705488
          ],
          [
            -98.0734229,
            26.1706982
          ]
        ]
      }
    },
    {
      "type": "Feature",
      "properties": {
        "id": "15272714",
        "name": "Travis Court",
        "highway": "residential",
        "surface": "paved"
      },
      "geometry": {
        "type": "LineString",
        "coordinates": [
          [
            -98.0732797,
            26.1717195
          ],
          [
            -98.0729144,
            26.1716671
          ],
          [
            -98.0728258,
            26.1716032
          ]
        ]
      }
    },
    {
      "type": "Feature",
      "properties": {
        "id": "15273012",
        "name": "Teri Street",
        "highway": "residential",
        "surface": "paved"
      },
      "geometry": {
        "type": "LineString",
        "coordinates": [
          [
            -98.072787,
            26.1745071
          ],
          [
            -98.0728713,
            26.173975
          ],
          [
            -98.0730205,
            26.1731999
          ],
          [
            -98.0731553,
            26.1724133
          ],
          [
            -98.0732797,
            26.1717195
          ],
          [
            -98.0734229,
            26.1706982
          ]
        ]
      }
    },
    {
      "type": "Feature",
      "properties": {
        "id": "15273787",
        "name": "Apollo Lane",
        "highway": "residential",
        "surface": "paved"
      },
      "geometry": {
        "type": "LineString",
        "coordinates": [
          [
            -98.0742202,
            26.1698847
          ],
          [
            -98.0743549,
            26.1690466
          ]
        ]
      }
    },
    {
      "type": "Feature",
      "properties": {
        "id": "15274172",
        "name": "Lunar Street",
        "highway": "residential",
        "surface": "paved"
      },
      "geometry": {
        "type": "LineString",
        "coordinates": [
          [
            -98.0716273,
            26.1719718
          ],
          [
            -98.0712275,
            26.1719045
          ],
          [
            -98.0679523,
            26.1714597
          ]
        ]
      }
    },
    {
      "type": "Feature",
      "properties": {
        "id": "15274440",
        "name": "Palm Court",
        "highway": "residential",
        "surface": "paved"
      },
      "geometry": {
        "type": "LineString",
        "coordinates": [
          [
            -98.0659403,
            26.1696167
          ],
          [
            -98.0661806,
            26.1682224
          ]
        ]
      }
    },
    {
      "type": "Feature",
      "properties": {
        "id": "15274494",
        "name": "Apollo Circle East",
        "highway": "residential",
        "surface": "paved"
      },
      "geometry": {
        "type": "LineString",
        "coordinates": [
          [
            -98.0733937,
            26.1697715
          ],
          [
            -98.073476,
            26.1692412
          ],
          [
            -98.0734104,
            26.1690667
          ]
        ]
      }
    },
    {
      "type": "Feature",
      "properties": {
        "id": "15274801",
        "name": "Apollo Drive",
        "highway": "residential",
        "surface": "paved"
      },
      "geometry": {
        "type": "LineString",
        "coordinates": [
          [
            -98.0684407,
            26.1685999
          ],
          [
            -98.0717081,
            26.1690775
          ],
          [
            -98.072634,
            26.1691882
          ],
          [
            -98.0727658,
            26.1692128
          ],
          [
            -98.0728684,
            26.1692205
          ],
          [
            -98.0730833,
            26.1691866
          ],
          [
            -98.0734104,
            26.1690667
          ],
          [
            -98.0735987,
            26.1689858
          ],
          [
            -98.0737904,
            26.1689765
          ],
          [
            -98.0743549,
            26.1690466
          ],
          [
            -98.0747379,
            26.1691006
          ],
          [
            -98.0751843,
            26.1691545
          ],
          [
            -98.0754761,
            26.1692007
          ],
          [
            -98.0763536,
            26.1693181
          ]
        ]
      }
    },
    {
      "type": "Feature",
      "properties": {
        "id": "15274802",
        "name": "Apollo Drive",
        "highway": "residential",
        "surface": "paved"
      },
      "geometry": {
        "type": "LineString",
        "coordinates": [
          [
            -98.0735987,
            26.1689858
          ],
          [
            -98.0735277,
            26.1688001
          ]
        ]
      }
    },
    {
      "type": "Feature",
      "properties": {
        "id": "15286610",
        "name": "South Hutto Road",
        "highway": "residential",
        "surface": "paved"
      },
      "geometry": {
        "type": "LineString",
        "coordinates": [
          [
            -98.0700191,
            26.1594898
          ],
          [
            -98.0698094,
            26.1606739
          ],
          [
            -98.0698034,
            26.1607081
          ],
          [
            -98.069745,
            26.1610513
          ],
          [
            -98.0695544,
            26.1621715
          ],
          [
            -98.0691074,
            26.1646172
          ]
        ]
      }
    },
    {
      "type": "Feature",
      "properties": {
        "id": "15287803",
        "name": "Lunar Drive",
        "highway": "residential",
        "surface": "paved"
      },
      "geometry": {
        "type": "LineString",
        "coordinates": [
          [
            -98.0662493,
            26.1715502
          ],
          [
            -98.0678997,
            26.171776
          ]
        ]
      }
    },
    {
      "type": "Feature",
      "properties": {
        "id": "145954610",
        "name": "South Hutto Road",
        "highway": "tertiary",
        "surface": "paved"
      },
      "geometry": {
        "type": "LineString",
        "coordinates": [
          [
            -98.0691074,
            26.1646172
          ],
          [
            -98.0689608,
            26.1654786
          ],
          [
            -98.0688734,
            26.1659917
          ],
          [
            -98.0688242,
            26.1662808
          ],
          [
            -98.068802,
            26.1664113
          ],
          [
            -98.0686866,
            26.1670891
          ],
          [
            -98.0686798,
            26.1671288
          ],
          [
            -98.0685788,
            26.1677221
          ],
          [
            -98.0685517,
            26.1678814
          ],
          [
            -98.0684407,
            26.1685999
          ],
          [
            -98.0684176,
            26.1687262
          ],
          [
            -98.0683194,
            26.1693185
          ],
          [
            -98.0682754,
            26.1695605
          ],
          [
            -98.0681955,
            26.1700224
          ],
          [
            -98.0681381,
            26.1703714
          ],
          [
            -98.0680772,
            26.1707182
          ],
          [
            -98.0680206,
            26.17107
          ],
          [
            -98.0679523,
            26.1714597
          ],
          [
            -98.0678997,
            26.171776
          ],
          [
            -98.0678117,
            26.1722497
          ],
          [
            -98.0677642,
            26.1725266
          ],
          [
            -98.0676968,
            26.1729215
          ],
          [
            -98.0676565,
            26.173172
          ],
          [
            -98.0675836,
            26.1735625
          ]
        ]
      }
    },
    {
      "type": "Feature",
      "properties": {
        "id": "147226099",
        "name": "Chile Pequin Drive",
        "highway": "residential",
        "surface": "paved"
      },
      "geometry": {
        "type": "LineString",
        "coordinates": [
          [
            -98.0669437,
            26.1660089
          ],
          [
            -98.0688242,
            26.1662808
          ]
        ]
      }
    },
    {
      "type": "Feature",
      "properties": {
        "id": "147226102",
        "name": "Habanero Drive",
        "highway": "residential",
        "surface": "paved"
      },
      "geometry": {
        "type": "LineString",
        "coordinates": [
          [
            -98.0668077,
            26.1668175
          ],
          [
            -98.0686866,
            26.1670891
          ]
        ]
      }
    },
    {
      "type": "Feature",
      "properties": {
        "id": "147226103",
        "name": "Poblano Drive",
        "highway": "residential",
        "surface": "paved"
      },
      "geometry": {
        "type": "LineString",
        "coordinates": [
          [
            -98.0670873,
            26.1652079
          ],
          [
            -98.0689608,
            26.1654786
          ]
        ]
      }
    },
    {
      "type": "Feature",
      "properties": {
        "id": "147226107",
        "name": "Collins Street",
        "highway": "residential",
        "surface": "paved"
      },
      "geometry": {
        "type": "LineString",
        "coordinates": [
          [
            -98.0682754,
            26.1695605
          ],
          [
            -98.0666037,
            26.1693263
          ]
        ]
      }
    },
    {
      "type": "Feature",
      "properties": {
        "id": "147226108",
        "name": "Pepper Tree Drive",
        "highway": "residential",
        "surface": "paved"
      },
      "geometry": {
        "type": "LineString",
        "coordinates": [
          [
            -98.0672309,
            26.1643767
          ],
          [
            -98.0670873,
            26.1652079
          ],
          [
            -98.0669437,
            26.1660089
          ],
          [
            -98.0668077,
            26.1668175
          ],
          [
            -98.0666717,
            26.1676336
          ]
        ]
      }
    },
    {
      "type": "Feature",
      "properties": {
        "id": "385833860",
        "name": "Topaz Street",
        "highway": "residential",
        "surface": "paved"
      },
      "geometry": {
        "type": "LineString",
        "coordinates": [
          [
            -98.0666037,
            26.1693263
          ],
          [
            -98.0667473,
            26.1684648
          ]
        ]
      }
    },
    {
      "type": "Feature",
      "properties": {
        "id": "385833863",
        "name": "Silver Court",
        "highway": "residential",
        "surface": "paved"
      },
      "geometry": {
        "type": "LineString",
        "coordinates": [
          [
            -98.0667473,
            26.1684648
          ],
          [
            -98.0684176,
            26.1687262
          ]
        ]
      }
    },
    {
      "type": "Feature",
      "properties": {
        "id": "385833897",
        "name": "Jalapeno Drive",
        "highway": "residential",
        "surface": "paved"
      },
      "geometry": {
        "type": "LineString",
        "coordinates": [
          [
            -98.0666717,
            26.1676336
          ],
          [
            -98.0685517,
            26.1678814
          ]
        ]
      }
    }
  ]
}